ASIASAT 8               
1 40107U 14046A   17203.17722999 -.00000053  00000-0  00000-0 0  9995
2 40107   0.0194 320.3484 0001829 178.5445 221.1062  1.00271902 69557
ASIASAT 6               
1 40141U 14052A   17203.84477903 -.00000384  00000-0  00000-0 0  9993
2 40141   0.0626 257.2096 0000488 160.8840 306.7007  1.00271789 10564
OPTUS 10                
1 40146U 14054A   17202.71212361 -.00000093  00000-0  00000-0 0  9997
2 40146   0.0871  38.4412 0001382  80.8509 240.7084  1.00271795 10513
MEASAT-3B               
1 40147U 14054B   17201.91576507 -.00000257  00000-0  00000-0 0  9996
2 40147   0.0361 329.7139 0001232 130.7428 259.5464  1.00270844 10298
LUCH (OLYMP)            
1 40258U 14058A   17203.94143117  .00000045  00000-0  00000-0 0  9999
2 40258   0.0300 159.9026 0000417 310.2363 179.4416  1.00271114 10332
HIMAWARI-8              
1 40267U 14060A   17203.77402630 -.00000297  00000-0  00000-0 0  9991
2 40267   0.0280 270.8342 0000527 249.5055 199.6458  1.00273387 10151
IRNSS-1C                
1 40269U 14061A   17203.62453795 -.00000182  00000-0  00000-0 0  9999
2 40269   2.9567 248.2262 0019610   4.4297 355.7897  1.00273348 10082
INTELSAT 30 (IS-30)     
1 40271U 14062A   17203.74490656 -.00000172  00000-0  00000-0 0  9992
2 40271   0.0178  43.6717 0001402  36.2447  33.8779  1.00270853 10096
ARSAT 1                 
1 40272U 14062B   17203.28153502 -.00000279  00000-0  00000-0 0  9996
2 40272   0.0532 249.2558 0000772 248.3240 192.1792  1.00272151 10002
EXPRESS-AM6             
1 40277U 14064A   17203.92615399  .00000076  00000-0  00000-0 0  9995
2 40277   0.0105 207.7556 0000223 112.5341   6.9732  1.00269877  8986
GSAT-16                 
1 40332U 14078A   17203.01392771  .00000065  00000-0  00000-0 0  9996
2 40332   0.1119 271.8015 0006884 174.9238 273.3394  1.00271523  9517
DIRECTV 14              
1 40333U 14078B   17203.74490656 -.00000146  00000-0  00000-0 0  9999
2 40333   0.0428 260.8932 0001343  65.3643 143.3372  1.00270904  9563
YAMAL 401               
1 40345U 14082A   17203.92427863 -.00000250  00000-0  00000-0 0  9993
2 40345   0.0374 146.8566 0000470 150.7574  65.8910  1.00270127  9815
ASTRA 2G                
1 40364U 14089A   17203.08845433  .00000130  00000-0  00000-0 0  9991
2 40364   0.0272   6.3471 0003945  71.6614 282.0213  1.00272258  9360
FENGYUN 2G              
1 40367U 14090A   17203.92612809 -.00000350  00000-0  00000-0 0  9993
2 40367   0.3684 251.3903 0003853 352.0087 135.3562  1.00265297  9444
INMARSAT 5-F2           
1 40384U 15005A   17203.71573870 -.00000306  00000-0  00000-0 0  9991
2 40384   0.0180  50.4589 0000144 356.4218  96.4213  1.00270168  8423
ABS-3A                  
1 40424U 15010A   17203.17473075 -.00000046  00000-0  00000-0 0  9999
2 40424   0.0192  54.2422 0001904 350.2303 315.5428  1.00269748  8808
EUTELSAT 115 WEST B     
1 40425U 15010B   17202.48737458 -.00000042  00000-0  00000-0 0  9997
2 40425   0.0066 173.3586 0000591 259.9631 286.6721  1.00272823  8827
EXPRESS-AM7             
1 40505U 15012A   17203.88310029  .00000129  00000-0  00000-0 0  9999
2 40505   0.0064 325.1687 0002148 166.8035 166.7369  1.00268518  8751
IRNSS-1D                
1 40547U 15018A   17203.67259733 -.00000315  00000-0  00000-0 0  9990
2 40547  29.0066 294.4737 0021042 185.1980 174.8555  1.00270539  8394
BEIDOU I1-S             
1 40549U 15019A   17203.82160001 -.00000205  00000-0  00000-0 0  9997
2 40549  54.3663 333.3667 0042010 187.0548 171.1104  1.00287269  8471
THOR 7                  
1 40613U 15022A   17203.16825796 -.00000028  00000-0  00000-0 0  9992
2 40613   0.0097 109.6751 0002318  12.6470 237.6856  1.00271622  8225
TURKMENALEM52E/MONACOSAT
1 40617U 15023A   17203.02233719  .00000085  00000-0  00000-0 0  9992
2 40617   0.0115  47.4766 0002320  88.5205 224.0072  1.00269706  8237
DIRECTV 15              
1 40663U 15026A   17202.45374108 -.00000120  00000-0  00000-0 0  9991
2 40663   0.0172  83.5712 0000150 188.2470  88.1675  1.00271877  7918
SKY MEXICO-1            
1 40664U 15026B   17202.38740669 -.00000251  00000-0  00000-0 0  9998
2 40664   0.0095  87.0825 0001879  38.5461 234.3766  1.00272890  7948
METEOSAT-11 (MSG-4)     
1 40732U 15034A   17203.83907964 -.00000050  00000-0  00000-0 0  9994
2 40732   1.7635 239.0598 0000880 279.8432  80.3004  1.00272818  7446
STAR ONE C4             
1 40733U 15034B   17203.36030019 -.00000285  00000-0  00000-0 0  9991
2 40733   0.0293 345.5821 0001290 111.1657 263.2516  1.00271356  7428
INTELSAT 34 (IS-34)     
1 40874U 15039A   17203.32010044 -.00000305  00000-0  00000-0 0  9997
2 40874   0.0208  50.8696 0000545 302.6602   6.4695  1.00270867  7077
EUTELSAT 8 WEST B       
1 40875U 15039B   17203.18862667 -.00000085  00000-0  00000-0 0  9993
2 40875   0.0642  23.2262 0002566  80.0913 256.6964  1.00271998  7085
GSAT-6                  
1 40880U 15041A   17202.93629669 -.00000183  00000-0  00000-0 0  9996
2 40880   0.0744 102.0198 0006175 161.0488  96.8468  1.00270079  7043
INMARSAT 5-F3           
1 40882U 15042A   17202.66886941  .00000032  00000-0  00000-0 0  9999
2 40882   0.0215  54.9916 0000154  89.3388 215.6706  1.00269433  6950
TJS-1                   
1 40892U 15046A   17203.80601641 -.00000178  00000-0  00000-0 0  9995
2 40892   0.0689 249.0473 0003693 112.7785  24.0699  1.00272651  6953
EXPRESS-AM8             
1 40895U 15048A   17203.36643277 -.00000132  00000-0  00000-0 0  9992
2 40895   0.0375 236.2266 0000499  20.6884 161.2908  1.00271543  6770
BEIDOU I2-S             
1 40938U 15053A   17203.39634556 -.00000156  00000-0  00000-0 0  9995
2 40938  54.1567 296.2778 0048090 174.3876  67.6029  1.00286821  6758
SKY MUSTER (NBN1A)      
1 40940U 15054A   17203.77522036 -.00000300  00000-0  00000-0 0  9991
2 40940   0.0133  38.8141 0001542  81.9560 239.2451  1.00271445  6682
ARSAT 2                 
1 40941U 15054B   17203.39081052 -.00000245  00000-0  00000-0 0  9996
2 40941   0.0500 247.9349 0001101 230.1021 241.9586  1.00272295  6712
MORELOS 3               
1 40946U 15056A   17203.39559243 -.00000057  00000-0  00000-0 0  9996
2 40946   6.3777 329.4666 0003204 183.9122 176.2553  1.00272161  6685
APSTAR 9                
1 40982U 15059A   17203.77030221 -.00000287  00000-0  00000-0 0  9996
2 40982   0.0087 269.3432 0000284 356.7809  93.8561  1.00273635  6556
TURKSAT 4B              
1 40984U 15060A   17203.02799536  .00000096  00000-0  00000-0 0  9996
2 40984   0.0162  15.6211 0001904 114.9989 229.3823  1.00270941  6512
CHINASAT 2C (ZX 2C)     
1 41021U 15063A   17203.92612963 -.00000346  00000-0  00000-0 0  9998
2 41021   0.0499 159.6713 0000937 128.8114  89.1990  1.00271875  6416
GSAT-15                 
1 41028U 15065A   17202.90742064 -.00000277  00000-0  00000-0 0  9993
2 41028   0.1336 268.7786 0001673 143.5957 307.6269  1.00274032  6249
BADR-7 (ARABSAT-6B)     
1 41029U 15065B   17203.09434528  .00000125  00000-0  00000-0 0  9999
2 41029   0.0569 239.6506 0003559 341.6260 138.6819  1.00272656  6149
LAOSAT 1                
1 41034U 15067A   17203.80768324 -.00000365  00000-0  00000-0 0  9997
2 41034   0.0490 210.2547 0002424 322.1838 187.5486  1.00269884  6268
TELSTAR 12V             
1 41036U 15068A   17203.20797550 -.00000139  00000-0  00000-0 0  9996
2 41036   0.0189  45.7381 0001590  80.0744 234.2023  1.00269663  6027
CHINASAT 1C (ZX 1C)     
1 41103U 15073A   17203.92059898 -.00000172  00000-0  00000-0 0  9999
2 41103   0.0471 173.1028 0002281 103.8343  76.8049  1.00271080  6065
ELEKTRO-L 2             
1 41105U 15074A   17203.77757638 -.00000117  00000-0  00000-0 0  9991
2 41105   0.0578 288.5119 0001686 344.0768  24.0100  1.00267097  5914
COSMOS 2513             
1 41121U 15075A   17203.84664539 -.00000160  00000-0  00000-0 0  9993
2 41121   0.0780 113.6857 0003028  41.9068 170.2049  1.00270930  5996
EXPRESS-AMU1            
1 41191U 15082A   17203.59573382  .00000134  00000-0  00000-0 0  9995
2 41191   0.0147  41.1002 0002051  81.6756  68.2781  1.00272053  5905
GAOFEN 4                
1 41194U 15083A   17203.91020978 -.00000357  00000-0  00000-0 0  9991
2 41194   0.0603 259.1441 0005313 325.4536 149.6270  1.00272541  5899
BELINTERSAT-1           
1 41238U 16001A   17203.31018211  .00000086  00000-0  00000-0 0  9990
2 41238   0.0412 276.0922 0001767 193.6907 353.6301  1.00273924  5667
IRNSS-1E                
1 41241U 16003A   17200.18192032 -.00000307  00000-0  00000-0 0  9999
2 41241  28.8329 114.1412 0019504 184.6444 175.2891  1.00263144  5559
INTELSAT 29E (IS-29E)   
1 41308U 16004A   17203.30489369 -.00000302  00000-0  00000-0 0  9998
2 41308   0.0118  44.1667 0001468  76.8389 239.0088  1.00271466  5558
EUTELSAT 9B             
1 41310U 16005A   17203.14136732  .00000042  00000-0  00000-0 0  9997
2 41310   0.0255 101.5486 0001945 172.8235  85.5909  1.00269962  5517
SES-9                   
1 41380U 16013A   17203.86361213 -.00000367  00000-0  00000-0 0  9997
2 41380   0.0491 280.1078 0001207 195.8441 244.0439  1.00270011  4899
EUTELSAT 65 WEST A      
1 41382U 16014A   17203.34699885 -.00000296  00000-0  00000-0 0  9993
2 41382   0.0461  23.5658 0001352 110.8682 225.5618  1.00269980  5040
IRNSS-1F                
1 41384U 16015A   17203.80918635  .00000139  00000-0  00000-0 0  9999
2 41384   4.0860 264.2163 0022056 182.2669 177.9632  1.00270310  5096
BEIDOU IGSO 6           
1 41434U 16021A   17203.36234190 -.00000151  00000-0  10000-3 0  9999
2 41434  55.5836  72.0119 0027203 179.4447 273.8125  1.00263826  4886
IRNSS-1G                
1 41469U 16027A   17203.54404284 -.00000352  00000-0  00000-0 0  9995
2 41469   4.1585 265.6060 0004507 204.4077 155.8195  1.00275650  4592
JCSAT 2B                
1 41471U 16028A   17203.73709413 -.00000187  00000-0  00000-0 0  9998
2 41471   0.0198  50.5428 0001720  72.6094 236.8644  1.00268887  4488
